     2.100          NAVIGATION                              RINEX VERSION / TYPE
fic2rin                                 08/14/2010 00:11:58 PGM / RUN BY / DATE
                                                            END OF HEADER
28 10  8 13 16  0  0.0 -.738911330700D-05  .136424205266D-11  .000000000000D+00
     .790000000000D+02 -.506250000000D+01  .494092009487D-08  .862362011445D+00
    -.189989805222D-06  .160833159462D-01  .441633164883D-05  .515367371750D+04
     .489600000000D+06 -.206753611565D-06  .221299971641D+01  .149011611938D-06
     .971007285940D+00  .305968750000D+03 -.194918692129D+01 -.869964808955D-08
    -.421446126351D-10  .100000000000D+01  .159600000000D+04  .000000000000D+00
     .240000000000D+01  .000000000000D+00 -.107102096081D-07  .790000000000D+02
     .482406000000D+06  .400000000000D+01
29 10  8 13 16  0  0.0  .141674187034D-03  .284217094304D-11  .000000000000D+00
     .140000000000D+02 -.594375000000D+02  .445125684129D-08  .290752377134D+01
    -.307895243168D-05  .281371187884D-02  .105258077383D-04  .515369396210D+04
     .489600000000D+06  .800937414169D-07 -.302659665129D+01  .558793544769D-07
     .961210265466D+00  .174906250000D+03 -.125328165372D+01 -.795104547867D-08
    -.572881005651D-09  .100000000000D+01  .159600000000D+04  .000000000000D+00
     .240000000000D+01  .000000000000D+00 -.884756445885D-08  .140000000000D+02
     .482406000000D+06  .400000000000D+01
30 10  8 13 16  0  0.0  .269055832177D-03  .329691829393D-11  .000000000000D+00
     .120000000000D+02  .150000000000D+01  .524057543386D-08  .126812553237D+01
    -.206753611565D-06  .125643040519D-01  .424496829510D-05  .515369554138D+04
     .489600000000D+06 -.199303030968D-06  .213303800690D+01 -.240281224251D-06
     .956876755403D+00  .297562500000D+03  .150300903031D+01 -.863643117060D-08
     .135719938995D-09  .100000000000D+01  .159600000000D+04  .000000000000D+00
     .240000000000D+01  .000000000000D+00 -.791624188423D-08  .120000000000D+02
     .482406000000D+06  .400000000000D+01
31 10  8 13 16  0  0.0 -.174818560481D-04  .284217094304D-11  .000000000000D+00
     .290000000000D+02  .270625000000D+02  .410909973193D-08 -.263353332933D+01
     .155903398991D-05  .734693813138D-02  .114869326353D-04  .515374658203D+04
     .489600000000D+06  .745058059692D-08  .113331293101D+01  .139698386192D-06
     .977486661294D+00  .165000000000D+03 -.105121469401D+01 -.768960601724D-08
     .494306304127D-09  .100000000000D+01  .159600000000D+04  .000000000000D+00
     .240000000000D+01  .000000000000D+00 -.130385160446D-07  .290000000000D+02
     .482406000000D+06  .400000000000D+01
 9 10  8 13 15 59 44.0  .240905210376D-04  .227373675443D-11  .000000000000D+00
     .000000000000D+00  .419375000000D+02  .392694928749D-08  .293741402576D+01
     .201165676117D-05  .171323808609D-01  .113993883133D-04  .515371127129D+04
     .489584000000D+06  .245869159698D-06  .110274922957D+01 -.912696123123D-07
     .981335203773D+00  .164875000000D+03  .154347686124D+01 -.751459872749D-08
     .392873507616D-09  .100000000000D+01  .159600000000D+04  .000000000000D+00
     .240000000000D+01  .000000000000D+00 -.558793544769D-08  .000000000000D+00
     .483546000000D+06  .400000000000D+01
 3 10  8 13 15 59 28.0  .594490673393D-03  .488853402203D-11  .000000000000D+00
     .120000000000D+02 -.726250000000D+02  .548165690444D-08 -.108759111611D+01
    -.373274087906D-05  .135078638559D-01  .814162194729D-05  .515372195435D+04
     .489568000000D+06  .210478901863D-06  .310157463779D+01  .301748514175D-06
     .927934420696D+00  .202781250000D+03  .102135420266D+01 -.862607359630D-08
    -.621097299767D-09  .100000000000D+01  .159600000000D+04  .000000000000D+00
     .240000000000D+01  .000000000000D+00 -.465661287308D-08  .120000000000D+02
     .485316000000D+06  .400000000000D+01
 3 10  8 13 17 59 28.0  .594526529312D-03  .488853402203D-11  .000000000000D+00
     .130000000000D+02 -.680312500000D+02  .562059126304D-08 -.374234457396D-01
    -.338070094585D-05  .135083827190D-01  .810064375401D-05  .515372290421D+04
     .496768000000D+06 -.428408384323D-07  .310151111496D+01  .158324837685D-06
     .927929225874D+00  .202906250000D+03  .102134565483D+01 -.884036823682D-08
    -.594667627436D-09  .100000000000D+01  .159600000000D+04  .000000000000D+00
     .240000000000D+01  .000000000000D+00 -.465661287308D-08  .130000000000D+02
     .489606000000D+06  .400000000000D+01
 9 10  8 13 17 59 44.0  .241063535213D-04  .227373675443D-11  .000000000000D+00
     .100000000000D+01  .433125000000D+02  .396302221864D-08 -.229562328730D+01
     .221468508244D-05  .171344265109D-01  .105556100607D-04  .515370763016D+04
     .496784000000D+06  .219792127609D-06  .110269466857D+01  .856816768646D-07
     .981338594817D+00  .181375000000D+03  .154348478733D+01 -.751031283468D-08
     .497877881469D-09  .100000000000D+01  .159600000000D+04  .000000000000D+00
     .240000000000D+01  .000000000000D+00 -.558793544769D-08  .100000000000D+01
     .489606000000D+06  .400000000000D+01
 1 10  8 13 18  0  0.0 -.151553656906D-03 -.397903932026D-11  .000000000000D+00
     .410000000000D+02 -.128125000000D+01  .510735559900D-08  .152524467414D+01
    -.149011611938D-07  .448753254022D-02  .440701842308D-05  .515360448837D+04
     .496800000000D+06 -.124797224998D-06  .217294726498D+01  .260770320892D-07
     .965465720071D+00  .299250000000D+03  .944569496242D+00 -.847249577060D-08
     .176793078427D-09  .100000000000D+01  .159600000000D+04  .000000000000D+00
     .240000000000D+01  .630000000000D+02 -.190921127796D-07  .410000000000D+02
     .489606000000D+06  .400000000000D+01
 2 10  8 13 18  0  0.0  .280551612377D-03  .295585778076D-11  .000000000000D+00
     .120000000000D+02  .635312500000D+02  .491591905347D-08  .843263095121D-01
     .318512320518D-05  .963759876322D-02  .104065984488D-04  .515362568665D+04
     .496800000000D+06  .173225998878D-06 -.202848288165D+01  .000000000000D+00
     .939567776404D+00  .170250000000D+03  .311934096594D+01 -.838499212572D-08
     .967897459671D-10  .100000000000D+01  .159600000000D+04  .000000000000D+00
     .240000000000D+01  .000000000000D+00 -.172294676304D-07  .120000000000D+02
     .489606000000D+06  .400000000000D+01
 4 10  8 13 18  0  0.0  .145847909153D-03  .818545231596D-11  .000000000000D+00
     .430000000000D+02  .633437500000D+02  .480270005173D-08 -.313873163787D+01
     .322051346302D-05  .918003998231D-02  .112149864435D-04  .515373601341D+04
     .496800000000D+06  .186264514923D-08 -.201071828852D+01 -.912696123123D-07
     .938683935428D+00  .150875000000D+03  .625152636139D+00 -.804676375144D-08
     .174650132022D-09  .100000000000D+01  .159600000000D+04  .000000000000D+00
     .240000000000D+01  .000000000000D+00 -.605359673500D-08  .430000000000D+02
     .489606000000D+06  .400000000000D+01
 5 10  8 13 18  0  0.0 -.237007625401D-04 -.420641299570D-11  .000000000000D+00
     .790000000000D+02  .342812500000D+02  .484127308703D-08  .175307868292D+01
     .184774398804D-05  .186857965309D-02  .333227217197D-05  .515376216316D+04
     .496800000000D+06 -.931322574615D-08 -.967799883401D+00  .167638063431D-07
     .957079164749D+00  .314250000000D+03  .181449739230D+00 -.848071039849D-08
     .432160858377D-10  .100000000000D+01  .159600000000D+04  .000000000000D+00
     .240000000000D+01  .000000000000D+00 -.884756445885D-08  .790000000000D+02
     .489606000000D+06  .400000000000D+01
 6 10  8 13 18  0  0.0  .535279978067D-03 -.148929757415D-10  .000000000000D+00
     .470000000000D+02 -.696250000000D+02  .527629120728D-08  .217077959197D+01
    -.342354178429D-05  .624437036458D-02  .880099833012D-05  .515365759850D+04
     .496800000000D+06  .149011611938D-06 -.311045468512D+01 -.186264514923D-07
     .935236291020D+00  .189531250000D+03 -.985095129989D+00 -.836892002768D-08
    -.662170439200D-09  .100000000000D+01  .159600000000D+04  .000000000000D+00
     .240000000000D+01  .000000000000D+00 -.512227416039D-08  .470000000000D+02
     .489606000000D+06  .400000000000D+01
 7 10  8 13 18  0  0.0 -.193249434233D-05  .000000000000D+00  .000000000000D+00
     .480000000000D+02  .197812500000D+02  .421446126351D-08 -.153849626155D+01
     .804662704468D-06  .392305909190D-02  .108033418655D-04  .515370022202D+04
     .496800000000D+06  .577419996262D-07  .113330997153D+01 -.484287738800D-07
     .972257419658D+00  .178937500000D+03  .305683353245D+01 -.787568519676D-08
     .505735351622D-09  .100000000000D+01  .159600000000D+04  .000000000000D+00
     .240000000000D+01  .000000000000D+00 -.102445483208D-07  .480000000000D+02
     .489606000000D+06  .400000000000D+01
 8 10  8 13 18  0  0.0  .643311068416D-05  .113686837722D-12  .000000000000D+00
     .780000000000D+02  .237187500000D+02  .377229998858D-08 -.216012522835D+01
     .106357038021D-05  .113573988201D-01  .110156834126D-04  .515367221642D+04
     .496800000000D+06 -.106170773506D-06  .120284802546D+01 -.210478901863D-06
     .993650111070D+00  .191312500000D+03  .311744272587D+01 -.759174479807D-08
     .556808907612D-09  .100000000000D+01  .159600000000D+04  .000000000000D+00
     .240000000000D+01  .000000000000D+00 -.372529029846D-08  .780000000000D+02
     .489606000000D+06  .400000000000D+01
10 10  8 13 18  0  0.0 -.495729036629D-04 -.102318153949D-11  .000000000000D+00
     .380000000000D+02  .390312500000D+02  .502806658201D-08  .183795930380D+01
     .194087624550D-05  .925151701085D-02  .322051346302D-05  .515353866386D+04
     .496800000000D+06 -.191852450371D-06 -.942470992923D+00  .447034835815D-07
     .952098614798D+00  .313937500000D+03  .662627989138D+00 -.860893002506D-08
     .350014579512D-10  .100000000000D+01  .159600000000D+04  .000000000000D+00
     .340000000000D+01  .000000000000D+00 -.279396772385D-08  .380000000000D+02
     .489606000000D+06  .400000000000D+01
